{"type": "FeatureCollection", "features": [ {"type": "Feature", "properties": {"norad_id": 30295, "name": "FENGYUN 1C DEB", "group": "fengyun-1c-debris", "lat": -60.50540859610203, "lon": 171.9513226144979, "alt_km": 876.1526459549941, "timestamp": "2025-12-10T18:57:00.340768+00:00", "meta": {"OBJECT_NAME": "FENGYUN 1C DEB", "OBJECT_ID": "1999-025ZG", "EPOCH": "2025-12-10T07:48:36.534240", "MEAN_MOTION": 14.25041054, "ECCENTRICITY": 0.0094533, "INCLINATION": 98.5084, "RA_OF_ASC_NODE": 6.8472, "ARG_OF_PERICENTER": 89.4615, "MEAN_ANOMALY": 291.7692, "EPHEMERIS_TYPE": 0, "CLASSIFICATION_TYPE": "U", "NORAD_CAT_ID": 30295, "ELEMENT_SET_NO": 999, "REV_AT_EPOCH": 98142, "BSTAR": 0.00023609, "MEAN_MOTION_DOT": 5.38e-06, "MEAN_MOTION_DDOT": 0}, "tle": {"line1": "1 30295U 99025ZG  25344.32542285  .00000538  00000+0  23609-3 0  9991", "line2": "2 30295  98.5084   6.8472 0094533  89.4615 291.7692 14.25041054981425"}}, "geometry": {"type": "Point", "coordinates": [171.9513226144979, -60.50540859610203]}}, {"type": "Feature", "properties": {"norad_id": 30297, "name": "FENGYUN 1C DEB", "group": "fengyun-1c-debris", "lat": -28.513381452079418, "lon": 111.50741261781218, "alt_km": 803.0544741653521, "timestamp": "2025-12-10T18:57:00.340778+00:00", "meta": {"OBJECT_NAME": "FENGYUN 1C DEB", "OBJECT_ID": "1999-025ZJ", "EPOCH": "2025-12-10T08:33:09.014112", "MEAN_MOTION": 14.21754738, "ECCENTRICITY": 0.0379596, "INCLINATION": 98.8117, "RA_OF_ASC_NODE": 295.9076, "ARG_OF_PERICENTER": 122.505, "MEAN_ANOMALY": 25.7564, "EPHEMERIS_TYPE": 0, "CLASSIFICATION_TYPE": "U", "NORAD_CAT_ID": 30297, "ELEMENT_SET_NO": 999, "REV_AT_EPOCH": 95118, "BSTAR": 0.0015026, "MEAN_MOTION_DOT": 6.881e-05, "MEAN_MOTION_DDOT": 0}, "tle": {"line1": "1 30297U 99025ZJ  25344.35635433  .00006881  00000+0  15026-2 0  9994", "line2": "2 30297  98.8117 295.9076 0379596 122.5050  25.7564 14.21754738951184"}}, "geometry": {"type": "Point", "coordinates": [111.50741261781218, -28.513381452079418]}}, {"type": "Feature", "properties": {"norad_id": 30298, "name": "FENGYUN 1C DEB", "group": "fengyun-1c-debris", "lat": -75.5913643124955, "lon": 113.78845106670462, "alt_km": 862.7071966691537, "timestamp": "2025-12-10T18:57:00.340788+00:00", "meta": {"OBJECT_NAME": "FENGYUN 1C DEB", "OBJECT_ID": "1999-025ZK", "EPOCH": "2025-12-10T06:06:18.806976", "MEAN_MOTION": 14.19904352, "ECCENTRICITY": 0.0048848, "INCLINATION": 99.0011, "RA_OF_ASC_NODE": 75.1506, "ARG_OF_PERICENTER": 134.9501, "MEAN_ANOMALY": 291.8184, "EPHEMERIS_TYPE": 0, "CLASSIFICATION_TYPE": "U", "NORAD_CAT_ID": 30298, "ELEMENT_SET_NO": 999, "REV_AT_EPOCH": 96799, "BSTAR": 0.003031, "MEAN_MOTION_DOT": 6.472e-05, "MEAN_MOTION_DDOT": 0}, "tle": {"line1": "1 30298U 99025ZK  25344.25438434  .00006472  00000+0  30310-2 0  9995", "line2": "2 30298  99.0011  75.1506 0048848 134.9501 291.8184 14.19904352967994"}}, "geometry": {"type": "Point", "coordinates": [113.78845106670462, -75.5913643124955]}}, {"type": "Feature", "properties": {"norad_id": 30299, "name": "FENGYUN 1C DEB", "group": "fengyun-1c-debris", "lat": -44.689840031041854, "lon": -132.1103934448179, "alt_km": 937.1097548921989, "timestamp": "2025-12-10T18:57:00.340798+00:00", "meta": {"OBJECT_NAME": "FENGYUN 1C DEB", "OBJECT_ID": "1999-025ZL", "EPOCH": "2025-12-10T04:21:41.020992", "MEAN_MOTION": 14.07729394, "ECCENTRICITY": 0.0103343, "INCLINATION": 99.0929, "RA_OF_ASC_NODE": 56.3931, "ARG_OF_PERICENTER": 15.0721, "MEAN_ANOMALY": 12.0391, "EPHEMERIS_TYPE": 0, "CLASSIFICATION_TYPE": "U", "NORAD_CAT_ID": 30299, "ELEMENT_SET_NO": 999, "REV_AT_EPOCH": 96254, "BSTAR": 0.0016870079, "MEAN_MOTION_DOT": 2.953e-05, "MEAN_MOTION_DDOT": 0}, "tle": {"line1": "1 30299U 99025ZL  25344.18172478  .00002953  00000+0  16870-2 0  9996", "line2": "2 30299  99.0929  56.3931 0103343  15.0721  12.0391 14.07729394962548"}}, "geometry": {"type": "Point", "coordinates": [-132.1103934448179, -44.689840031041854]}}, {"type": "Feature", "properties": {"norad_id": 30300, "name": "FENGYUN 1C DEB", "group": "fengyun-1c-debris", "lat": -79.3589765903539, "lon": 176.16824331332322, "alt_km": 766.083771540234, "timestamp": "2025-12-10T18:57:00.340808+00:00", "meta": {"OBJECT_NAME": "FENGYUN 1C DEB", "OBJECT_ID": "1999-025ZM", "EPOCH": "2025-12-09T03:17:18.930624", "MEAN_MOTION": 14.26777657, "ECCENTRICITY": 0.00745987, "INCLINATION": 99.0372, "RA_OF_ASC_NODE": 52.3564, "ARG_OF_PERICENTER": 304.7411, "MEAN_ANOMALY": 116.5908, "EPHEMERIS_TYPE": 0, "CLASSIFICATION_TYPE": "U", "NORAD_CAT_ID": 30300, "ELEMENT_SET_NO": 999, "REV_AT_EPOCH": 96933, "BSTAR": 0.0025866985, "MEAN_MOTION_DOT": 6.411e-05, "MEAN_MOTION_DDOT": 0}, "tle": {"line1": "1 30300U 99025ZM  25343.13702466  .00006411  00000+0  25867-2 0  9998", "line2": "2 30300  99.0372  52.3564 0074598 304.7411 116.5908 14.26777657969338"}}, "geometry": {"type": "Point", "coordinates": [176.16824331332322, -79.3589765903539]}}, {"type": "Feature", "properties": {"norad_id": 30301, "name": "FENGYUN 1C DEB", "group": "fengyun-1c-debris", "lat": -59.28277858270359, "lon": -58.96802269717531, "alt_km": 695.0076440714629, "timestamp": "2025-12-10T18:57:00.340818+00:00", "meta": {"OBJECT_NAME": "FENGYUN 1C DEB", "OBJECT_ID": "1999-025ZN", "EPOCH": "2025-12-10T03:13:23.941632", "MEAN_MOTION": 14.52846001, "ECCENTRICITY": 0.00689044, "INCLINATION": 98.6357, "RA_OF_ASC_NODE": 135.1771, "ARG_OF_PERICENTER": 297.1985, "MEAN_ANOMALY": 118.458, "EPHEMERIS_TYPE": 0, "CLASSIFICATION_TYPE": "U", "NORAD_CAT_ID": 30301, "ELEMENT_SET_NO": 999, "REV_AT_EPOCH": 97179, "BSTAR": 0.0059423753, "MEAN_MOTION_DOT": 0.00025252, "MEAN_MOTION_DDOT": 0}, "tle": {"line1": "1 30301U 99025ZN  25344.13430488  .00025252  00000+0  59424-2 0  9992", "line2": "2 30301  98.6357 135.1771 0068904 297.1985 118.4580 14.52846001971791"}}, "geometry": {"type": "Point", "coordinates": [-58.96802269717531, -59.28277858270359]}}, {"type": "Feature", "properties": {"norad_id": 30302, "name": "FENGYUN 1C DEB", "group": "fengyun-1c-debris", "lat": -81.43272483236476, "lon": -14.714378149703544, "alt_km": 919.7746516875932, "timestamp": "2025-12-10T18:57:00.340828+00:00", "meta": {"OBJECT_NAME": "FENGYUN 1C DEB", "OBJECT_ID": "1999-025ZP", "EPOCH": "2025-12-09T04:17:27.898368", "MEAN_MOTION": 14.12766745, "ECCENTRICITY": 0.01043694, "INCLINATION": 98.5525, "RA_OF_ASC_NODE": 251.0366, "ARG_OF_PERICENTER": 127.8349, "MEAN_ANOMALY": 233.2326, "EPHEMERIS_TYPE": 0, "CLASSIFICATION_TYPE": "U", "NORAD_CAT_ID": 30302, "ELEMENT_SET_NO": 999, "REV_AT_EPOCH": 95993, "BSTAR": 0.0023618631, "MEAN_MOTION_DOT": 4.579e-05, "MEAN_MOTION_DDOT": 0}, "tle": {"line1": "1 30302U 99025ZP  25343.17879512  .00004579  00000+0  23619-2 0  9997", "line2": "2 30302  98.5525 251.0366 0104369 127.8349 233.2326 14.12766745959933"}}, "geometry": {"type": "Point", "coordinates": [-14.714378149703544, -81.43272483236476]}}, {"type": "Feature", "properties": {"norad_id": 30303, "name": "FENGYUN 1C DEB", "group": "fengyun-1c-debris", "lat": 57.075004163033476, "lon": -103.76615046836217, "alt_km": 853.3460015622122, "timestamp": "2025-12-10T18:57:00.340838+00:00", "meta": {"OBJECT_NAME": "FENGYUN 1C DEB", "OBJECT_ID": "1999-025ZQ", "EPOCH": "2025-12-08T04:03:33.168096", "MEAN_MOTION": 14.25747257, "ECCENTRICITY": 0.00759778, "INCLINATION": 99.0195, "RA_OF_ASC_NODE": 59.3398, "ARG_OF_PERICENTER": 295.6889, "MEAN_ANOMALY": 63.6458, "EPHEMERIS_TYPE": 0, "CLASSIFICATION_TYPE": "U", "NORAD_CAT_ID": 30303, "ELEMENT_SET_NO": 999, "REV_AT_EPOCH": 96970, "BSTAR": 0.0031051335, "MEAN_MOTION_DOT": 7.56e-05, "MEAN_MOTION_DDOT": 0}, "tle": {"line1": "1 30303U 99025ZQ  25342.16913389  .00007560  00000+0  31051-2 0  9999", "line2": "2 30303  99.0195  59.3398 0075977 295.6889  63.6458 14.25747257969700"}}, "geometry": {"type": "Point", "coordinates": [-103.76615046836217, 57.075004163033476]}}, {"type": "Feature", "properties": {"norad_id": 30304, "name": "FENGYUN 1C DEB", "group": "fengyun-1c-debris", "lat": -8.797871649061477, "lon": 58.60564211335706, "alt_km": 820.4945303508766, "timestamp": "2025-12-10T18:57:00.340848+00:00", "meta": {"OBJECT_NAME": "FENGYUN 1C DEB", "OBJECT_ID": "1999-025ZR", "EPOCH": "2025-12-09T15:50:53.140128", "MEAN_MOTION": 14.15470306, "ECCENTRICITY": 0.00740402, "INCLINATION": 99.0328, "RA_OF_ASC_NODE": 56.0512, "ARG_OF_PERICENTER": 57.9163, "MEAN_ANOMALY": 302.9171, "EPHEMERIS_TYPE": 0, "CLASSIFICATION_TYPE": "U", "NORAD_CAT_ID": 30304, "ELEMENT_SET_NO": 999, "REV_AT_EPOCH": 96775, "BSTAR": 0.0020453054, "MEAN_MOTION_DOT": 4.058e-05, "MEAN_MOTION_DDOT": 0}, "tle": {"line1": "1 30304U 99025ZR  25343.66033727  .00004058  00000+0  20453-2 0  9998", "line2": "2 30304  99.0328  56.0512 0074040  57.9163 302.9171 14.15470306967756"}}, "geometry": {"type": "Point", "coordinates": [58.60564211335706, -8.797871649061477]}}, {"type": "Feature", "properties": {"norad_id": 30305, "name": "FENGYUN 1C DEB", "group": "fengyun-1c-debris", "lat": 70.14697168554622, "lon": 129.7598684906244, "alt_km": 831.1312713865946, "timestamp": "2025-12-10T18:57:00.340858+00:00", "meta": {"OBJECT_NAME": "FENGYUN 1C DEB", "OBJECT_ID": "1999-025ZS", "EPOCH": "2025-12-10T10:12:53.791776", "MEAN_MOTION": 13.60228192, "ECCENTRICITY": 0.0265687, "INCLINATION": 98.5869, "RA_OF_ASC_NODE": 284.7025, "ARG_OF_PERICENTER": 107.1242, "MEAN_ANOMALY": 19.3998, "EPHEMERIS_TYPE": 0, "CLASSIFICATION_TYPE": "U", "NORAD_CAT_ID": 30305, "ELEMENT_SET_NO": 999, "REV_AT_EPOCH": 93742, "BSTAR": 0.00037366, "MEAN_MOTION_DOT": 3.19e-06, "MEAN_MOTION_DDOT": 0}, "tle": {"line1": "1 30305U 99025ZS  25344.42562259  .00000319  00000+0  37366-3 0  9999", "line2": "2 30305  98.5869 284.7025 0265687 107.1242  19.3998 13.60228192937425"}}, "geometry": {"type": "Point", "coordinates": [129.7598684906244, 70.14697168554622]}}]}